[
    {
        "Altitude(m)": 707309.435959777,
        "Argument of Periapsis(deg)": 0.007973084830638947,
        "Eccentricity": 0.0,
        "Inclination(deg)": 45.0,
        "Latitude(deg)": 45.15416335422511,
        "Longitude(deg)": -130.67463335039625,
        "Mean Anomaly(deg)": 89.89145165323659,
        "RAAN(deg)": 239.99247364097926,
        "Satellite Name": "Constellation 1 1061",
        "Satellite Number": 1061,
        "Semi-Major Axis(m)": 7083131.272910544,
        "Time(s)": 133
    },
    {
        "Altitude(m)": 707309.4603044754,
        "Argument of Periapsis(deg)": 0.008033032836884352,
        "Eccentricity": 0.0,
        "Inclination(deg)": 45.0,
        "Latitude(deg)": 45.154237717450094,
        "Longitude(deg)": -130.59284842245324,
        "Mean Anomaly(deg)": 89.95215279348648,
        "RAAN(deg)": 239.99241705181365,
        "Satellite Name": "Constellation 1 1061",
        "Satellite Number": 1061,
        "Semi-Major Axis(m)": 7083131.272910544,
        "Time(s)": 134
    },
    {
        "Altitude(m)": 707309.4700100966,
        "Argument of Periapsis(deg)": 0.008092980843129758,
        "Eccentricity": 0.0,
        "Inclination(deg)": 45.0,
        "Latitude(deg)": 45.154247510134006,
        "Longitude(deg)": -130.51106336836148,
        "Mean Anomaly(deg)": 90.01285393373637,
        "RAAN(deg)": 239.9923604626481,
        "Satellite Name": "Constellation 1 1061",
        "Satellite Number": 1061,
        "Semi-Major Axis(m)": 7083131.272910544,
        "Time(s)": 135
    },
    {
        "Altitude(m)": 707309.4650766157,
        "Argument of Periapsis(deg)": 0.008152928849375162,
        "Eccentricity": 0.0,
        "Inclination(deg)": 45.0,
        "Latitude(deg)": 45.15419273223344,
        "Longitude(deg)": -130.42927838198125,
        "Mean Anomaly(deg)": 90.0735550739863,
        "RAAN(deg)": 239.9923038734825,
        "Satellite Name": "Constellation 1 1061",
        "Satellite Number": 1061,
        "Semi-Major Axis(m)": 7083131.272910544,
        "Time(s)": 136
    },
    {
        "Altitude(m)": 707309.4455041012,
        "Argument of Periapsis(deg)": 0.008212876855620568,
        "Eccentricity": 0.0,
        "Inclination(deg)": 45.0,
        "Latitude(deg)": 45.154073383993655,
        "Longitude(deg)": -130.3474936571716,
        "Mean Anomaly(deg)": 90.13425621423619,
        "RAAN(deg)": 239.99224728431696,
        "Satellite Name": "Constellation 1 1061",
        "Satellite Number": 1061,
        "Semi-Major Axis(m)": 7083131.272910544,
        "Time(s)": 137
    },
    {
        "Altitude(m)": 707309.411292701,
        "Argument of Periapsis(deg)": 0.008272824861865974,
        "Eccentricity": 0.0,
        "Inclination(deg)": 45.0,
        "Latitude(deg)": 45.153889465948595,
        "Longitude(deg)": -130.26570938778698,
        "Mean Anomaly(deg)": 90.19495735448608,
        "RAAN(deg)": 239.9921906951514,
        "Satellite Name": "Constellation 1 1061",
        "Satellite Number": 1061,
        "Semi-Major Axis(m)": 7083131.272910544,
        "Time(s)": 138
    },
    {
        "Altitude(m)": 707309.3624426505,
        "Argument of Periapsis(deg)": 0.00833277286811138,
        "Eccentricity": 0.0,
        "Inclination(deg)": 45.0,
        "Latitude(deg)": 45.15364097892079,
        "Longitude(deg)": -130.18392576767354,
        "Mean Anomaly(deg)": 90.25565849473601,
        "RAAN(deg)": 239.9921341059858,
        "Satellite Name": "Constellation 1 1061",
        "Satellite Number": 1061,
        "Semi-Major Axis(m)": 7083131.272910544,
        "Time(s)": 139
    },
    {
        "Altitude(m)": 707309.2989542705,
        "Argument of Periapsis(deg)": 0.008392720874356788,
        "Eccentricity": 0.0,
        "Inclination(deg)": 45.0,
        "Latitude(deg)": 45.15332792402143,
        "Longitude(deg)": -130.1021429906657,
        "Mean Anomaly(deg)": 90.3163596349859,
        "RAAN(deg)": 239.99207751682025,
        "Satellite Name": "Constellation 1 1061",
        "Satellite Number": 1061,
        "Semi-Major Axis(m)": 7083131.272910544,
        "Time(s)": 140
    },
    {
        "Altitude(m)": 707309.2208279711,
        "Argument of Periapsis(deg)": 0.008452668880602192,
        "Eccentricity": 0.0,
        "Inclination(deg)": 45.0,
        "Latitude(deg)": 45.15295030265046,
        "Longitude(deg)": -130.0203614186795,
        "Mean Anomaly(deg)": 90.37706077523578,
        "RAAN(deg)": 239.9920209276547,
        "Satellite Name": "Constellation 1 1061",
        "Satellite Number": 1061,
        "Semi-Major Axis(m)": 7083131.272910544,
        "Time(s)": 141
    },
    {
        "Altitude(m)": 707309.1280642386,
        "Argument of Periapsis(deg)": 0.008512616886847598,
        "Eccentricity": 0.0,
        "Inclination(deg)": 45.0,
        "Latitude(deg)": 45.15250811649579,
        "Longitude(deg)": -129.93858090932198,
        "Mean Anomaly(deg)": 90.43776191548567,
        "RAAN(deg)": 239.9919643384891,
        "Satellite Name": "Constellation 1 1061",
        "Satellite Number": 1061,
        "Semi-Major Axis(m)": 7083131.272910544,
        "Time(s)": 142
    },
    {
        "Altitude(m)": 707309.0206636527,
        "Argument of Periapsis(deg)": 0.008572564893093004,
        "Eccentricity": 0.0,
        "Inclination(deg)": 45.0,
        "Latitude(deg)": 45.15200136753448,
        "Longitude(deg)": -129.85680182446822,
        "Mean Anomaly(deg)": 90.4984630557356,
        "RAAN(deg)": 239.9919077493235,
        "Satellite Name": "Constellation 1 1061",
        "Satellite Number": 1061,
        "Semi-Major Axis(m)": 7083131.272910544,
        "Time(s)": 143
    },
    {
        "Altitude(m)": 707308.8986268766,
        "Argument of Periapsis(deg)": 0.008632512899338408,
        "Eccentricity": 0.0,
        "Inclination(deg)": 45.0,
        "Latitude(deg)": 45.15143005803185,
        "Longitude(deg)": -129.77502435787096,
        "Mean Anomaly(deg)": 90.55916419598549,
        "RAAN(deg)": 239.99185116015795,
        "Satellite Name": "Constellation 1 1061",
        "Satellite Number": 1061,
        "Semi-Major Axis(m)": 7083131.272910544,
        "Time(s)": 144
    },
    {
        "Altitude(m)": 707308.7619546592,
        "Argument of Periapsis(deg)": 0.008692460905583814,
        "Eccentricity": 0.0,
        "Inclination(deg)": 45.0,
        "Latitude(deg)": 45.15079419054171,
        "Longitude(deg)": -129.6932487032538,
        "Mean Anomaly(deg)": 90.61986533623539,
        "RAAN(deg)": 239.9917945709924,
        "Satellite Name": "Constellation 1 1061",
        "Satellite Number": 1061,
        "Semi-Major Axis(m)": 7083131.272910544,
        "Time(s)": 145
    },
    {
        "Altitude(m)": 707308.6106478369,
        "Argument of Periapsis(deg)": 0.00875240891182922,
        "Eccentricity": 0.0,
        "Inclination(deg)": 45.0,
        "Latitude(deg)": 45.150093767906135,
        "Longitude(deg)": -129.61147505430762,
        "Mean Anomaly(deg)": 90.68056647648532,
        "RAAN(deg)": 239.99173798182684,
        "Satellite Name": "Constellation 1 1061",
        "Satellite Number": 1061,
        "Semi-Major Axis(m)": 7083131.272910544,
        "Time(s)": 146
    },
    {
        "Altitude(m)": 707308.4447073257,
        "Argument of Periapsis(deg)": 0.008812356918074627,
        "Eccentricity": 0.0,
        "Inclination(deg)": 45.0,
        "Latitude(deg)": 45.14932879325567,
        "Longitude(deg)": -129.52970360468709,
        "Mean Anomaly(deg)": 90.74126761673521,
        "RAAN(deg)": 239.99168139266126,
        "Satellite Name": "Constellation 1 1061",
        "Satellite Number": 1061,
        "Semi-Major Axis(m)": 7083131.272910544,
        "Time(s)": 147
    },
    {
        "Altitude(m)": 707308.264134131,
        "Argument of Periapsis(deg)": 0.008872304924320031,
        "Eccentricity": 0.0,
        "Inclination(deg)": 45.0,
        "Latitude(deg)": 45.14849927000921,
        "Longitude(deg)": -129.44793471610436,
        "Mean Anomaly(deg)": 90.80196875698505,
        "RAAN(deg)": 239.99162480349568,
        "Satellite Name": "Constellation 1 1061",
        "Satellite Number": 1061,
        "Semi-Major Axis(m)": 7083131.272910544,
        "Time(s)": 148
    },
    {
        "Altitude(m)": 707308.0689293443,
        "Argument of Periapsis(deg)": 0.008932252930565437,
        "Eccentricity": 0.0,
        "Inclination(deg)": 45.0,
        "Latitude(deg)": 45.14760520187325,
        "Longitude(deg)": -129.3661682459374,
        "Mean Anomaly(deg)": 90.86266989723498,
        "RAAN(deg)": 239.99156821433013,
        "Satellite Name": "Constellation 1 1061",
        "Satellite Number": 1061,
        "Semi-Major Axis(m)": 7083131.272910544,
        "Time(s)": 149
    },
    {
        "Altitude(m)": 707307.859094143,
        "Argument of Periapsis(deg)": 0.008992200936810843,
        "Eccentricity": 0.0,
        "Inclination(deg)": 45.0,
        "Latitude(deg)": 45.14664659284298,
        "Longitude(deg)": -129.28440455580886,
        "Mean Anomaly(deg)": 90.92337103748487,
        "RAAN(deg)": 239.99151162516455,
        "Satellite Name": "Constellation 1 1061",
        "Satellite Number": 1061,
        "Semi-Major Axis(m)": 7083131.272910544,
        "Time(s)": 150
    },
    {
        "Altitude(m)": 707307.6346297879,
        "Argument of Periapsis(deg)": 0.009052148943056249,
        "Eccentricity": 0.0,
        "Inclination(deg)": 45.0,
        "Latitude(deg)": 45.14562344720143,
        "Longitude(deg)": -129.20264383919388,
        "Mean Anomaly(deg)": 90.98407217773475,
        "RAAN(deg)": 239.991455035999,
        "Satellite Name": "Constellation 1 1061",
        "Satellite Number": 1061,
        "Semi-Major Axis(m)": 7083131.272910544,
        "Time(s)": 151
    }
]